{
  "norad_id": 64392,
  "name": "STARLINK-33802",
  "history": [
    {
      "epoch": "2026-03-28T15:42:22.828032Z",
      "apogee_km": 483.6254776797523,
      "perigee_km": 482.38882505790934,
      "latitude_deg": 7.277717383870969e-05,
      "longitude_deg": 11.346688472799952,
      "height_km": 482.9836361805813,
      "semi_major_axis_km": 6861.1441513688305,
      "eccentricity": 9.012e-05,
      "inclination_deg": 43.0,
      "raan_deg": 73.0135,
      "arg_perigee_deg": 251.0992,
      "mean_anomaly_deg": 108.9763,
      "mean_motion_rev_day": 15.27594008
    }
  ]
}